{
  "type": "FeatureCollection",
  "features": [
    {
      "type": "Feature",
      "properties": {
        "norad_id": 30932,
        "name": "FENGYUN 1C DEB",
        "group": "fengyun-1c-debris",
        "lat": -55.754347164434705,
        "lon": 80.64258825968024,
        "alt_km": 797.3297120376055,
        "timestamp": "2025-12-07T03:52:32.776868+00:00",
        "meta_object_name": "FENGYUN 1C DEB",
        "meta_object_id": "1999-025AZW",
        "meta_epoch": "2025-12-06T06:33:57.807072",
        "meta_mean_motion": 14.26670328,
        "meta_eccentricity": 0.0059168,
        "meta_inclination": 98.9096,
        "meta_ra_of_asc_node": 273.0614,
        "meta_arg_of_pericenter": 312.5313,
        "meta_mean_anomaly": 47.0879,
        "meta_ephemeris_type": 0,
        "meta_classification_type": "U",
        "meta_norad_cat_id": 30932,
        "meta_element_set_no": 999,
        "meta_rev_at_epoch": 96302,
        "meta_bstar": 0.0052315372,
        "meta_mean_motion_dot": 0.00012859,
        "meta_mean_motion_ddot": 0,
        "tle_line1": "1 30932U 99025AZW 25340.27358573  .00012859  00000+0  52315-2 0  9998",
        "tle_line2": "2 30932  98.9096 273.0614 0059168 312.5313  47.0879 14.26670328963024"
      },
      "geometry": {
        "type": "Point",
        "coordinates": [
          80.64258825968024,
          -55.754347164434705
        ]
      }
    },
    {
      "type": "Feature",
      "properties": {
        "norad_id": 30933,
        "name": "FENGYUN 1C DEB",
        "group": "fengyun-1c-debris",
        "lat": -56.70608001148479,
        "lon": -22.584079140517613,
        "alt_km": 733.1328755702007,
        "timestamp": "2025-12-07T03:52:32.776878+00:00",
        "meta_object_name": "FENGYUN 1C DEB",
        "meta_object_id": "1999-025AZX",
        "meta_epoch": "2025-12-06T10:27:21.311712",
        "meta_mean_motion": 14.36189001,
        "meta_eccentricity": 0.00777247,
        "meta_inclination": 99.047,
        "meta_ra_of_asc_node": 322.6136,
        "meta_arg_of_pericenter": 340.7534,
        "meta_mean_anomaly": 171.3585,
        "meta_ephemeris_type": 0,
        "meta_classification_type": "U",
        "meta_norad_cat_id": 30933,
        "meta_element_set_no": 999,
        "meta_rev_at_epoch": 95781,
        "meta_bstar": 0.0095903608,
        "meta_mean_motion_dot": 0.00029025,
        "meta_mean_motion_ddot": 0,
        "tle_line1": "1 30933U 99025AZX 25340.43566333  .00029025  00000+0  95904-2 0  9996",
        "tle_line2": "2 30933  99.0470 322.6136 0077724 340.7534 171.3585 14.36189001957818"
      },
      "geometry": {
        "type": "Point",
        "coordinates": [
          -22.584079140517613,
          -56.70608001148479
        ]
      }
    },
    {
      "type": "Feature",
      "properties": {
        "norad_id": 30934,
        "name": "FENGYUN 1C DEB",
        "group": "fengyun-1c-debris",
        "lat": -61.16854988355061,
        "lon": 22.56550684213498,
        "alt_km": 1300.8772450387723,
        "timestamp": "2025-12-07T03:52:32.776889+00:00",
        "meta_object_name": "FENGYUN 1C DEB",
        "meta_object_id": "1999-025AZY",
        "meta_epoch": "2025-12-06T14:13:28.670880",
        "meta_mean_motion": 13.46716268,
        "meta_eccentricity": 0.0340176,
        "meta_inclination": 98.7656,
        "meta_ra_of_asc_node": 218.3434,
        "meta_arg_of_pericenter": 97.165,
        "meta_mean_anomaly": 266.8286,
        "meta_ephemeris_type": 0,
        "meta_classification_type": "U",
        "meta_norad_cat_id": 30934,
        "meta_element_set_no": 999,
        "meta_rev_at_epoch": 91625,
        "meta_bstar": 0.0026137105,
        "meta_mean_motion_dot": 2.212e-05,
        "meta_mean_motion_ddot": 0,
        "tle_line1": "1 30934U 99025AZY 25340.59269295  .00002212  00000+0  26137-2 0  9992",
        "tle_line2": "2 30934  98.7656 218.3434 0340176  97.1650 266.8286 13.46716268916251"
      },
      "geometry": {
        "type": "Point",
        "coordinates": [
          22.56550684213498,
          -61.16854988355061
        ]
      }
    },
    {
      "type": "Feature",
      "properties": {
        "norad_id": 30936,
        "name": "FENGYUN 1C DEB",
        "group": "fengyun-1c-debris",
        "lat": 4.771553117536642,
        "lon": -167.1766064871362,
        "alt_km": 838.5025417154766,
        "timestamp": "2025-12-07T03:52:32.776900+00:00",
        "meta_object_name": "FENGYUN 1C DEB",
        "meta_object_id": "1999-025BAA",
        "meta_epoch": "2025-12-06T14:16:09.602976",
        "meta_mean_motion": 14.23352159,
        "meta_eccentricity": 0.00460291,
        "meta_inclination": 98.5822,
        "meta_ra_of_asc_node": 11.5483,
        "meta_arg_of_pericenter": 308.9868,
        "meta_mean_anomaly": 203.0954,
        "meta_ephemeris_type": 0,
        "meta_classification_type": "U",
        "meta_norad_cat_id": 30936,
        "meta_element_set_no": 999,
        "meta_rev_at_epoch": 97045,
        "meta_bstar": 0.0008948662,
        "meta_mean_motion_dot": 2.008e-05,
        "meta_mean_motion_ddot": 0,
        "tle_line1": "1 30936U 99025BAA 25340.59455559  .00002008  00000+0  89487-3 0  9995",
        "tle_line2": "2 30936  98.5822  11.5483 0046029 308.9868 203.0954 14.23352159970455"
      },
      "geometry": {
        "type": "Point",
        "coordinates": [
          -167.1766064871362,
          4.771553117536642
        ]
      }
    },
    {
      "type": "Feature",
      "properties": {
        "norad_id": 30937,
        "name": "FENGYUN 1C DEB",
        "group": "fengyun-1c-debris",
        "lat": -23.59824284237137,
        "lon": -150.4100645476503,
        "alt_km": 953.7199991526495,
        "timestamp": "2025-12-07T03:52:32.776910+00:00",
        "meta_object_name": "FENGYUN 1C DEB",
        "meta_object_id": "1999-025BAB",
        "meta_epoch": "2025-12-06T09:47:28.244256",
        "meta_mean_motion": 13.95582869,
        "meta_eccentricity": 0.00758594,
        "meta_inclination": 99.0897,
        "meta_ra_of_asc_node": 32.8572,
        "meta_arg_of_pericenter": 70.3983,
        "meta_mean_anomaly": 309.0754,
        "meta_ephemeris_type": 0,
        "meta_classification_type": "U",
        "meta_norad_cat_id": 30937,
        "meta_element_set_no": 999,
        "meta_rev_at_epoch": 95628,
        "meta_bstar": 2.3407516e-05,
        "meta_mean_motion_dot": -1.1e-07,
        "meta_mean_motion_ddot": 0,
        "tle_line1": "1 30937U 99025BAB 25340.40796579 -.00000011  00000+0  23408-4 0  9991",
        "tle_line2": "2 30937  99.0897  32.8572 0075859  70.3983 309.0754 13.95582869956281"
      },
      "geometry": {
        "type": "Point",
        "coordinates": [
          -150.4100645476503,
          -23.59824284237137
        ]
      }
    },
    {
      "type": "Feature",
      "properties": {
        "norad_id": 30938,
        "name": "FENGYUN 1C DEB",
        "group": "fengyun-1c-debris",
        "lat": 19.838537381746665,
        "lon": 177.94503922691746,
        "alt_km": 857.3080593226041,
        "timestamp": "2025-12-07T03:52:32.776921+00:00",
        "meta_object_name": "FENGYUN 1C DEB",
        "meta_object_id": "1999-025BAC",
        "meta_epoch": "2025-12-06T14:12:00.489312",
        "meta_mean_motion": 14.19805087,
        "meta_eccentricity": 0.00462493,
        "meta_inclination": 98.591,
        "meta_ra_of_asc_node": 354.2656,
        "meta_arg_of_pericenter": 1.5816,
        "meta_mean_anomaly": 127.19,
        "meta_ephemeris_type": 0,
        "meta_classification_type": "U",
        "meta_norad_cat_id": 30938,
        "meta_element_set_no": 999,
        "meta_rev_at_epoch": 97032,
        "meta_bstar": 0.00065435898,
        "meta_mean_motion_dot": 1.359e-05,
        "meta_mean_motion_ddot": 0,
        "tle_line1": "1 30938U 99025BAC 25340.59167233  .00001359  00000+0  65436-3 0  9992",
        "tle_line2": "2 30938  98.5910 354.2656 0046249   1.5816 127.1900 14.19805087970328"
      },
      "geometry": {
        "type": "Point",
        "coordinates": [
          177.94503922691746,
          19.838537381746665
        ]
      }
    },
    {
      "type": "Feature",
      "properties": {
        "norad_id": 30940,
        "name": "FENGYUN 1C DEB",
        "group": "fengyun-1c-debris",
        "lat": -44.61098652958719,
        "lon": -9.639688012544935,
        "alt_km": 858.8648632545437,
        "timestamp": "2025-12-07T03:52:32.776931+00:00",
        "meta_object_name": "FENGYUN 1C DEB",
        "meta_object_id": "1999-025BAE",
        "meta_epoch": "2025-12-05T06:06:10.312128",
        "meta_mean_motion": 14.08285934,
        "meta_eccentricity": 0.00414748,
        "meta_inclination": 98.6226,
        "meta_ra_of_asc_node": 339.9288,
        "meta_arg_of_pericenter": 24.7538,
        "meta_mean_anomaly": 346.6881,
        "meta_ephemeris_type": 0,
        "meta_classification_type": "U",
        "meta_norad_cat_id": 30940,
        "meta_element_set_no": 999,
        "meta_rev_at_epoch": 96027,
        "meta_bstar": 0.000647699,
        "meta_mean_motion_dot": 1.074e-05,
        "meta_mean_motion_ddot": 0,
        "tle_line1": "1 30940U 99025BAE 25339.25428602  .00001074  00000+0  64770-3 0  9990",
        "tle_line2": "2 30940  98.6226 339.9288 0041474  24.7538 346.6881 14.08285934960276"
      },
      "geometry": {
        "type": "Point",
        "coordinates": [
          -9.639688012544935,
          -44.61098652958719
        ]
      }
    }
  ]
}